{"fetched_at":"2026-07-13T07:47:54.571Z","source":"https://celestrak.org/NORAD/elements/gp.php?GROUP=oneweb&FORMAT=JSON","constellation":"oneweb","records":[{"OBJECT_NAME":"ONEWEB-0136","OBJECT_ID":"2020-100AA","EPOCH":"2026-07-12T10:13:32.348640","CLASSIFICATION_TYPE":"U","MEAN_MOTION":13.12442034,"ECCENTRICITY":0.00016579,"INCLINATION":87.8928,"RA_OF_ASC_NODE":345.6304,"ARG_OF_PERICENTER":94.1689,"MEAN_ANOMALY":265.9629,"EPHEMERIS_TYPE":0,"NORAD_CAT_ID":47282,"ELEMENT_SET_NO":999,"REV_AT_EPOCH":26797,"BSTAR":0.00064318929,"MEAN_MOTION_DOT":0.00000244,"MEAN_MOTION_DDOT":0},{"OBJECT_NAME":"ONEWEB-0137","OBJECT_ID":"2020-100AB","EPOCH":"2026-07-12T20:11:13.580160","CLASSIFICATION_TYPE":"U","MEAN_MOTION":13.12443834,"ECCENTRICITY":0.0001807,"INCLINATION":87.8974,"RA_OF_ASC_NODE":345.5606,"ARG_OF_PERICENTER":91.9227,"MEAN_ANOMALY":268.2108,"EPHEMERIS_TYPE":0,"NORAD_CAT_ID":47283,"ELEMENT_SET_NO":999,"REV_AT_EPOCH":26793,"BSTAR":-0.0010875,"MEAN_MOTION_DOT":-0.00000379,"MEAN_MOTION_DDOT":0},{"OBJECT_NAME":"ONEWEB-0138","OBJECT_ID":"2020-100AC","EPOCH":"2026-07-12T10:30:36.818496","CLASSIFICATION_TYPE":"U","MEAN_MOTION":13.12441712,"ECCENTRICITY":0.00018574,"INCLINATION":87.8946,"RA_OF_ASC_NODE":345.6435,"ARG_OF_PERICENTER":98.1985,"MEAN_ANOMALY":261.9354,"EPHEMERIS_TYPE":0,"NORAD_CAT_ID":47284,"ELEMENT_SET_NO":999,"REV_AT_EPOCH":26796,"BSTAR":-0.00051470712,"MEAN_MOTION_DOT":-0.00000172,"MEAN_MOTION_DDOT":0},{"OBJECT_NAME":"ONEWEB-0139","OBJECT_ID":"2020-100AD","EPOCH":"2026-07-12T18:48:30.168864","CLASSIFICATION_TYPE":"U","MEAN_MOTION":13.12443784,"ECCENTRICITY":0.0001924,"INCLINATION":87.8968,"RA_OF_ASC_NODE":345.5622,"ARG_OF_PERICENTER":95.8668,"MEAN_ANOMALY":264.268,"EPHEMERIS_TYPE":0,"NORAD_CAT_ID":47285,"ELEMENT_SET_NO":999,"REV_AT_EPOCH":26808,"BSTAR":0.0008048,"MEAN_MOTION_DOT":0.00000302,"MEAN_MOTION_DDOT":0},{"OBJECT_NAME":"ONEWEB-0140","OBJECT_ID":"2020-100AE","EPOCH":"2026-07-12T10:23:17.729376","CLASSIFICATION_TYPE":"U","MEAN_MOTION":13.12441452,"ECCENTRICITY":0.00015909,"INCLINATION":87.8957,"RA_OF_ASC_NODE":345.6226,"ARG_OF_PERICENTER":97.3058,"MEAN_ANOMALY":262.8252,"EPHEMERIS_TYPE":0,"NORAD_CAT_ID":47286,"ELEMENT_SET_NO":999,"REV_AT_EPOCH":26800,"BSTAR":-0.00008162646,"MEAN_MOTION_DOT":-1.7e-7,"MEAN_MOTION_DDOT":0},{"OBJECT_NAME":"ONEWEB-0141","OBJECT_ID":"2020-100AF","EPOCH":"2026-07-12T18:48:05.507712","CLASSIFICATION_TYPE":"U","MEAN_MOTION":13.12443415,"ECCENTRICITY":0.0001865,"INCLINATION":87.8968,"RA_OF_ASC_NODE":345.5585,"ARG_OF_PERICENTER":87.0065,"MEAN_ANOMALY":273.1276,"EPHEMERIS_TYPE":0,"NORAD_CAT_ID":47287,"ELEMENT_SET_NO":999,"REV_AT_EPOCH":26803,"BSTAR":0.00033878,"MEAN_MOTION_DOT":0.00000135,"MEAN_MOTION_DDOT":0},{"OBJECT_NAME":"ONEWEB-0142","OBJECT_ID":"2020-100AG","EPOCH":"2026-07-12T20:21:11.563200","CLASSIFICATION_TYPE":"U","MEAN_MOTION":13.12445116,"ECCENTRICITY":0.0002184,"INCLINATION":87.8959,"RA_OF_ASC_NODE":345.5657,"ARG_OF_PERICENTER":89.9733,"MEAN_ANOMALY":270.1646,"EPHEMERIS_TYPE":0,"NORAD_CAT_ID":47288,"ELEMENT_SET_NO":999,"REV_AT_EPOCH":26803,"BSTAR":-0.00049961,"MEAN_MOTION_DOT":-0.00000167,"MEAN_MOTION_DDOT":0},{"OBJECT_NAME":"ONEWEB-0143","OBJECT_ID":"2020-100AH","EPOCH":"2026-07-12T09:36:56.792448","CLASSIFICATION_TYPE":"U","MEAN_MOTION":13.1244403,"ECCENTRICITY":0.00018036,"INCLINATION":87.8959,"RA_OF_ASC_NODE":345.6543,"ARG_OF_PERICENTER":95.2684,"MEAN_ANOMALY":264.865,"EPHEMERIS_TYPE":0,"NORAD_CAT_ID":47289,"ELEMENT_SET_NO":999,"REV_AT_EPOCH":26795,"BSTAR":0.00049931058,"MEAN_MOTION_DOT":0.00000192,"MEAN_MOTION_DDOT":0},{"OBJECT_NAME":"ONEWEB-0144","OBJECT_ID":"2020-100AJ","EPOCH":"2026-07-12T08:55:27.957504","CLASSIFICATION_TYPE":"U","MEAN_MOTION":13.12442418,"ECCENTRICITY":0.00022429,"INCLINATION":87.8969,"RA_OF_ASC_NODE":345.6354,"ARG_OF_PERICENTER":97.9242,"MEAN_ANOMALY":262.2142,"EPHEMERIS_TYPE":0,"NORAD_CAT_ID":47290,"ELEMENT_SET_NO":999,"REV_AT_EPOCH":26787,"BSTAR":-0.0010714857,"MEAN_MOTION_DOT":-0.00000373,"MEAN_MOTION_DDOT":0},{"OBJECT_NAME":"ONEWEB-0145","OBJECT_ID":"2020-100AK","EPOCH":"2026-07-12T19:12:41.829696","CLASSIFICATION_TYPE":"U","MEAN_MOTION":13.12440857,"ECCENTRICITY":0.0001409,"INCLINATION":87.8925,"RA_OF_ASC_NODE":345.5727,"ARG_OF_PERICENTER":55.8715,"MEAN_ANOMALY":304.2547,"EPHEMERIS_TYPE":0,"NORAD_CAT_ID":47291,"ELEMENT_SET_NO":999,"REV_AT_EPOCH":26812,"BSTAR":0.0012411,"MEAN_MOTION_DOT":0.00000459,"MEAN_MOTION_DDOT":0},{"OBJECT_NAME":"ONEWEB-0146","OBJECT_ID":"2020-100AL","EPOCH":"2026-07-12T19:07:49.045152","CLASSIFICATION_TYPE":"U","MEAN_MOTION":13.12442975,"ECCENTRICITY":0.0001053,"INCLINATION":87.8928,"RA_OF_ASC_NODE":345.5655,"ARG_OF_PERICENTER":67.2954,"MEAN_ANOMALY":292.8285,"EPHEMERIS_TYPE":0,"NORAD_CAT_ID":47292,"ELEMENT_SET_NO":999,"REV_AT_EPOCH":26803,"BSTAR":0.0010486,"MEAN_MOTION_DOT":0.0000039,"MEAN_MOTION_DDOT":0},{"OBJECT_NAME":"ONEWEB-0147","OBJECT_ID":"2020-100AM","EPOCH":"2026-07-12T20:08:47.386176","CLASSIFICATION_TYPE":"U","MEAN_MOTION":13.12443935,"ECCENTRICITY":0.0001981,"INCLINATION":87.8978,"RA_OF_ASC_NODE":345.5417,"ARG_OF_PERICENTER":102.7772,"MEAN_ANOMALY":257.3578,"EPHEMERIS_TYPE":0,"NORAD_CAT_ID":47293,"ELEMENT_SET_NO":999,"REV_AT_EPOCH":26793,"BSTAR":-0.0007074,"MEAN_MOTION_DOT":-0.00000242,"MEAN_MOTION_DDOT":0},{"OBJECT_NAME":"ONEWEB-0115","OBJECT_ID":"2021-025A","EPOCH":"2026-07-12T18:30:46.863072","CLASSIFICATION_TYPE":"U","MEAN_MOTION":13.13465231,"ECCENTRICITY":0.0001882,"INCLINATION":87.8986,"RA_OF_ASC_NODE":315.1318,"ARG_OF_PERICENTER":99.9572,"MEAN_ANOMALY":260.177,"EPHEMERIS_TYPE":0,"NORAD_CAT_ID":48042,"ELEMENT_SET_NO":999,"REV_AT_EPOCH":25695,"BSTAR":-0.0018926,"MEAN_MOTION_DOT":-0.00000678,"MEAN_MOTION_DDOT":0},{"OBJECT_NAME":"ONEWEB-0152","OBJECT_ID":"2021-025B","EPOCH":"2026-07-12T18:50:18.553344","CLASSIFICATION_TYPE":"U","MEAN_MOTION":13.13473595,"ECCENTRICITY":0.0001795,"INCLINATION":87.8988,"RA_OF_ASC_NODE":315.1273,"ARG_OF_PERICENTER":103.1835,"MEAN_ANOMALY":256.9495,"EPHEMERIS_TYPE":0,"NORAD_CAT_ID":48043,"ELEMENT_SET_NO":999,"REV_AT_EPOCH":25691,"BSTAR":0.00098199,"MEAN_MOTION_DOT":0.00000371,"MEAN_MOTION_DDOT":0},{"OBJECT_NAME":"ONEWEB-0153","OBJECT_ID":"2021-025C","EPOCH":"2026-07-12T18:18:36.065088","CLASSIFICATION_TYPE":"U","MEAN_MOTION":13.13469984,"ECCENTRICITY":0.0002019,"INCLINATION":87.8974,"RA_OF_ASC_NODE":315.1329,"ARG_OF_PERICENTER":97.9717,"MEAN_ANOMALY":262.1641,"EPHEMERIS_TYPE":0,"NORAD_CAT_ID":48044,"ELEMENT_SET_NO":999,"REV_AT_EPOCH":25690,"BSTAR":-0.00043897,"MEAN_MOTION_DOT":-0.00000148,"MEAN_MOTION_DDOT":0},{"OBJECT_NAME":"ONEWEB-0154","OBJECT_ID":"2021-025D","EPOCH":"2026-07-12T18:13:43.664160","CLASSIFICATION_TYPE":"U","MEAN_MOTION":13.13470362,"ECCENTRICITY":0.0001909,"INCLINATION":87.8987,"RA_OF_ASC_NODE":315.1325,"ARG_OF_PERICENTER":106.0543,"MEAN_ANOMALY":254.0796,"EPHEMERIS_TYPE":0,"NORAD_CAT_ID":48045,"ELEMENT_SET_NO":999,"REV_AT_EPOCH":25686,"BSTAR":-0.00060767,"MEAN_MOTION_DOT":-0.00000209,"MEAN_MOTION_DDOT":0}]}
