ONEWEB-0136             
1 47282U 20100AA  26193.42606885  .00000244  00000+0  64319-3 0  9991
2 47282  87.8928 345.6304 0001657  94.1689 265.9629 13.12442034267972
ONEWEB-0137             
1 47283U 20100AB  26193.84112940 -.00000379  00000+0 -10875-2 0  9990
2 47283  87.8974 345.5606 0001807  91.9227 268.2108 13.12443834267931
ONEWEB-0138             
1 47284U 20100AC  26193.43792614 -.00000172  00000+0 -51471-3 0  9997
2 47284  87.8946 345.6435 0001857  98.1985 261.9354 13.12441712267966
ONEWEB-0139             
1 47285U 20100AD  26193.78368251  .00000302  00000+0  80480-3 0  9997
2 47285  87.8968 345.5622 0001924  95.8668 264.2680 13.12443784268088
ONEWEB-0140             
1 47286U 20100AE  26193.43284409 -.00000017  00000+0 -81626-4 0  9991
2 47286  87.8957 345.6226 0001590  97.3058 262.8252 13.12441452268008
ONEWEB-0141             
1 47287U 20100AF  26193.78339708  .00000135  00000+0  33878-3 0  9997
2 47287  87.8968 345.5585 0001865  87.0065 273.1276 13.12443415268032
ONEWEB-0142             
1 47288U 20100AG  26193.84805050 -.00000167  00000+0 -49961-3 0  9990
2 47288  87.8959 345.5657 0002184  89.9733 270.1646 13.12445116268039
ONEWEB-0143             
1 47289U 20100AH  26193.40065732  .00000192  00000+0  49931-3 0  9991
2 47289  87.8959 345.6543 0001803  95.2684 264.8650 13.12444030267956
ONEWEB-0144             
1 47290U 20100AJ  26193.37185136 -.00000373  00000+0 -10715-2 0  9990
2 47290  87.8969 345.6354 0002242  97.9242 262.2142 13.12442418267873
ONEWEB-0145             
1 47291U 20100AK  26193.80048414  .00000459  00000+0  12411-2 0  9994
2 47291  87.8925 345.5727 0001409  55.8715 304.2547 13.12440857268121
ONEWEB-0146             
1 47292U 20100AL  26193.79709543  .00000390  00000+0  10486-2 0  9994
2 47292  87.8928 345.5655 0001053  67.2954 292.8285 13.12442975268036
ONEWEB-0147             
1 47293U 20100AM  26193.83943734 -.00000242  00000+0 -70740-3 0  9990
2 47293  87.8978 345.5417 0001981 102.7772 257.3578 13.12443935267937
ONEWEB-0115             
1 48042U 21025A   26193.77137573 -.00000678  00000+0 -18926-2 0  9999
2 48042  87.8986 315.1318 0001882  99.9572 260.1770 13.13465231256957
ONEWEB-0152             
1 48043U 21025B   26193.78493696  .00000371  00000+0  98199-3 0  9991
2 48043  87.8988 315.1273 0001795 103.1835 256.9495 13.13473595256918
ONEWEB-0153             
1 48044U 21025C   26193.76291742 -.00000148  00000+0 -43897-3 0  9997
2 48044  87.8974 315.1329 0002019  97.9717 262.1641 13.13469984256903
ONEWEB-0154             
1 48045U 21025D   26193.75953315 -.00000209  00000+0 -60767-3 0  9991
2 48045  87.8987 315.1325 0001909 106.0543 254.0796 13.13470362256868
